{"type": "FeatureCollection", "features": [ {"type": "Feature", "properties": {"norad_id": 31615, "name": "FENGYUN 1C DEB", "group": "fengyun-1c-debris", "lat": 29.515886963575433, "lon": -129.49352518006356, "alt_km": 871.2071715337406, "timestamp": "2025-12-19T10:50:01.484323+00:00", "meta": {"OBJECT_NAME": "FENGYUN 1C DEB", "OBJECT_ID": "1999-025BZV", "EPOCH": "2025-12-18T09:01:53.872608", "MEAN_MOTION": 14.35447371, "ECCENTRICITY": 0.01662951, "INCLINATION": 99.1382, "RA_OF_ASC_NODE": 44.1395, "ARG_OF_PERICENTER": 300.1486, "MEAN_ANOMALY": 58.3309, "EPHEMERIS_TYPE": 0, "CLASSIFICATION_TYPE": "U", "NORAD_CAT_ID": 31615, "ELEMENT_SET_NO": 999, "REV_AT_EPOCH": 65359, "BSTAR": 0.0026534563, "MEAN_MOTION_DOT": 8.876e-05, "MEAN_MOTION_DDOT": 0}, "tle": {"line1": "1 31615U 99025BZV 25352.37631797  .00008876  00000+0  26535-2 0  9992", "line2": "2 31615  99.1382  44.1395 0166295 300.1486  58.3309 14.35447371653592"}}, "geometry": {"type": "Point", "coordinates": [-129.49352518006356, 29.515886963575433]}}, {"type": "Feature", "properties": {"norad_id": 31618, "name": "FENGYUN 1C DEB", "group": "fengyun-1c-debris", "lat": -46.429306184912704, "lon": -53.23020430490184, "alt_km": 807.0227739505863, "timestamp": "2025-12-19T10:50:01.484334+00:00", "meta": {"OBJECT_NAME": "FENGYUN 1C DEB", "OBJECT_ID": "1999-025BZY", "EPOCH": "2025-12-18T15:09:53.301888", "MEAN_MOTION": 14.21028975, "ECCENTRICITY": 0.01569221, "INCLINATION": 99.4434, "RA_OF_ASC_NODE": 135.9699, "ARG_OF_PERICENTER": 309.3748, "MEAN_ANOMALY": 49.3614, "EPHEMERIS_TYPE": 0, "CLASSIFICATION_TYPE": "U", "NORAD_CAT_ID": 31618, "ELEMENT_SET_NO": 999, "REV_AT_EPOCH": 70348, "BSTAR": 0.00025004223, "MEAN_MOTION_DOT": 5.62e-06, "MEAN_MOTION_DDOT": 0}, "tle": {"line1": "1 31618U 99025BZY 25352.63186692  .00000562  00000+0  25004-3 0  9998", "line2": "2 31618  99.4434 135.9699 0156922 309.3748  49.3614 14.21028975703483"}}, "geometry": {"type": "Point", "coordinates": [-53.23020430490184, -46.429306184912704]}}, {"type": "Feature", "properties": {"norad_id": 31619, "name": "FENGYUN 1C DEB", "group": "fengyun-1c-debris", "lat": -66.162958630638, "lon": -151.84822169969587, "alt_km": 554.753883308711, "timestamp": "2025-12-19T10:50:01.484344+00:00", "meta": {"OBJECT_NAME": "FENGYUN 1C DEB", "OBJECT_ID": "1999-025BZZ", "EPOCH": "2025-12-17T23:34:56.000640", "MEAN_MOTION": 14.85928466, "ECCENTRICITY": 0.00947023, "INCLINATION": 99.0713, "RA_OF_ASC_NODE": 185.2794, "ARG_OF_PERICENTER": 278.4468, "MEAN_ANOMALY": 80.6018, "EPHEMERIS_TYPE": 0, "CLASSIFICATION_TYPE": "U", "NORAD_CAT_ID": 31619, "ELEMENT_SET_NO": 999, "REV_AT_EPOCH": 63566, "BSTAR": 0.0035881114, "MEAN_MOTION_DOT": 0.00034026, "MEAN_MOTION_DDOT": 0}, "tle": {"line1": "1 31619U 99025BZZ 25351.98259260  .00034026  00000+0  35881-2 0  9993", "line2": "2 31619  99.0713 185.2794 0094702 278.4468  80.6018 14.85928466635660"}}, "geometry": {"type": "Point", "coordinates": [-151.84822169969587, -66.162958630638]}}, {"type": "Feature", "properties": {"norad_id": 31620, "name": "FENGYUN 1C DEB", "group": "fengyun-1c-debris", "lat": -1.4378544766144348, "lon": -102.46948509613694, "alt_km": 783.6296135963848, "timestamp": "2025-12-19T10:50:01.484354+00:00", "meta": {"OBJECT_NAME": "FENGYUN 1C DEB", "OBJECT_ID": "1999-025CAA", "EPOCH": "2025-12-18T12:16:26.023584", "MEAN_MOTION": 14.37303737, "ECCENTRICITY": 0.00195289, "INCLINATION": 98.8873, "RA_OF_ASC_NODE": 76.7848, "ARG_OF_PERICENTER": 23.9081, "MEAN_ANOMALY": 336.3007, "EPHEMERIS_TYPE": 0, "CLASSIFICATION_TYPE": "U", "NORAD_CAT_ID": 31620, "ELEMENT_SET_NO": 999, "REV_AT_EPOCH": 65927, "BSTAR": 0.0019950798, "MEAN_MOTION_DOT": 5.921e-05, "MEAN_MOTION_DDOT": 0}, "tle": {"line1": "1 31620U 99025CAA 25352.51141231  .00005921  00000+0  19951-2 0  9995", "line2": "2 31620  98.8873  76.7848 0019528  23.9081 336.3007 14.37303737659274"}}, "geometry": {"type": "Point", "coordinates": [-102.46948509613694, -1.4378544766144348]}}, {"type": "Feature", "properties": {"norad_id": 31622, "name": "FENGYUN 1C DEB", "group": "fengyun-1c-debris", "lat": 14.989218005753006, "lon": -89.2288549019609, "alt_km": 778.3230860550084, "timestamp": "2025-12-19T10:50:01.484364+00:00", "meta": {"OBJECT_NAME": "FENGYUN 1C DEB", "OBJECT_ID": "1999-025CAC", "EPOCH": "2025-12-18T18:03:56.113056", "MEAN_MOTION": 14.372429, "ECCENTRICITY": 0.00152057, "INCLINATION": 98.8164, "RA_OF_ASC_NODE": 87.6738, "ARG_OF_PERICENTER": 322.7946, "MEAN_ANOMALY": 189.0606, "EPHEMERIS_TYPE": 0, "CLASSIFICATION_TYPE": "U", "NORAD_CAT_ID": 31622, "ELEMENT_SET_NO": 999, "REV_AT_EPOCH": 95858, "BSTAR": 0.001405287, "MEAN_MOTION_DOT": 4.147e-05, "MEAN_MOTION_DDOT": 0}, "tle": {"line1": "1 31622U 99025CAC 25352.75273279  .00004147  00000+0  14053-2 0  9998", "line2": "2 31622  98.8164  87.6738 0015205 322.7946 189.0606 14.37242900958584"}}, "geometry": {"type": "Point", "coordinates": [-89.2288549019609, 14.989218005753006]}}, {"type": "Feature", "properties": {"norad_id": 31623, "name": "FENGYUN 1C DEB", "group": "fengyun-1c-debris", "lat": -38.3014076907031, "lon": 17.688015531789674, "alt_km": 1049.057456225867, "timestamp": "2025-12-19T10:50:01.484374+00:00", "meta": {"OBJECT_NAME": "FENGYUN 1C DEB", "OBJECT_ID": "1999-025CAD", "EPOCH": "2025-12-02T20:02:22.350624", "MEAN_MOTION": 13.82580933, "ECCENTRICITY": 0.01951152, "INCLINATION": 97.6304, "RA_OF_ASC_NODE": 190.283, "ARG_OF_PERICENTER": 33.7651, "MEAN_ANOMALY": 327.5758, "EPHEMERIS_TYPE": 0, "CLASSIFICATION_TYPE": "U", "NORAD_CAT_ID": 31623, "ELEMENT_SET_NO": 999, "REV_AT_EPOCH": 57783, "BSTAR": 0.00047153491, "MEAN_MOTION_DOT": 5.61e-06, "MEAN_MOTION_DDOT": 0}, "tle": {"line1": "1 31623U 99025CAD 25336.83498091  .00000561  00000+0  47153-3 0  9995", "line2": "2 31623  97.6304 190.2830 0195115  33.7651 327.5758 13.82580933577835"}}, "geometry": {"type": "Point", "coordinates": [17.688015531789674, -38.3014076907031]}}, {"type": "Feature", "properties": {"norad_id": 31625, "name": "FENGYUN 1C DEB", "group": "fengyun-1c-debris", "lat": -42.08418657310184, "lon": -108.20705348801657, "alt_km": 785.4131893803296, "timestamp": "2025-12-19T10:50:01.484385+00:00", "meta": {"OBJECT_NAME": "FENGYUN 1C DEB", "OBJECT_ID": "1999-025CAF", "EPOCH": "2025-12-18T17:59:55.171968", "MEAN_MOTION": 14.55407543, "ECCENTRICITY": 0.0148944, "INCLINATION": 98.8059, "RA_OF_ASC_NODE": 79.1008, "ARG_OF_PERICENTER": 357.4885, "MEAN_ANOMALY": 153.2333, "EPHEMERIS_TYPE": 0, "CLASSIFICATION_TYPE": "U", "NORAD_CAT_ID": 31625, "ELEMENT_SET_NO": 999, "REV_AT_EPOCH": 98480, "BSTAR": 0.00011221206, "MEAN_MOTION_DOT": 5.05e-06, "MEAN_MOTION_DDOT": 0}, "tle": {"line1": "1 31625U 99025CAF 25352.74994412  .00000505  00000+0  11221-3 0  9998", "line2": "2 31625  98.8059  79.1008 0148944 357.4885 153.2333 14.55407543984800"}}, "geometry": {"type": "Point", "coordinates": [-108.20705348801657, -42.08418657310184]}}, {"type": "Feature", "properties": {"norad_id": 31627, "name": "FENGYUN 1C DEB", "group": "fengyun-1c-debris", "lat": -22.490529073708554, "lon": 44.81299570778475, "alt_km": 812.1216051183292, "timestamp": "2025-12-19T10:50:01.484395+00:00", "meta": {"OBJECT_NAME": "FENGYUN 1C DEB", "OBJECT_ID": "1999-025CAH", "EPOCH": "2025-11-26T09:13:22.975680", "MEAN_MOTION": 14.35408996, "ECCENTRICITY": 0.00515931, "INCLINATION": 98.5313, "RA_OF_ASC_NODE": 18.4415, "ARG_OF_PERICENTER": 201.9005, "MEAN_ANOMALY": 157.9975, "EPHEMERIS_TYPE": 0, "CLASSIFICATION_TYPE": "U", "NORAD_CAT_ID": 31627, "ELEMENT_SET_NO": 999, "REV_AT_EPOCH": 64532, "BSTAR": 0.0013473839, "MEAN_MOTION_DOT": 3.885e-05, "MEAN_MOTION_DDOT": 0}, "tle": {"line1": "1 31627U 99025CAH 25330.38429370  .00003885  00000+0  13474-2 0  9997", "line2": "2 31627  98.5313  18.4415 0051593 201.9005 157.9975 14.35408996645325"}}, "geometry": {"type": "Point", "coordinates": [44.81299570778475, -22.490529073708554]}}, {"type": "Feature", "properties": {"norad_id": 31628, "name": "FENGYUN 1C DEB", "group": "fengyun-1c-debris", "lat": -27.644176715190287, "lon": 23.808766017870305, "alt_km": 822.4507052437639, "timestamp": "2025-12-19T10:50:01.484405+00:00", "meta": {"OBJECT_NAME": "FENGYUN 1C DEB", "OBJECT_ID": "1999-025CAJ", "EPOCH": "2025-12-18T07:51:32.254560", "MEAN_MOTION": 13.86860771, "ECCENTRICITY": 0.01681262, "INCLINATION": 102.2709, "RA_OF_ASC_NODE": 208.8841, "ARG_OF_PERICENTER": 206.8364, "MEAN_ANOMALY": 152.4008, "EPHEMERIS_TYPE": 0, "CLASSIFICATION_TYPE": "U", "NORAD_CAT_ID": 31628, "ELEMENT_SET_NO": 999, "REV_AT_EPOCH": 93377, "BSTAR": 0.0017535761, "MEAN_MOTION_DOT": 2.221e-05, "MEAN_MOTION_DDOT": 0}, "tle": {"line1": "1 31628U 99025CAJ 25352.32745665  .00002221  00000+0  17536-2 0  9990", "line2": "2 31628 102.2709 208.8841 0168126 206.8364 152.4008 13.86860771933773"}}, "geometry": {"type": "Point", "coordinates": [23.808766017870305, -27.644176715190287]}}, {"type": "Feature", "properties": {"norad_id": 31629, "name": "FENGYUN 1C DEB", "group": "fengyun-1c-debris", "lat": 48.18522030909646, "lon": 27.845418324409607, "alt_km": 780.9153970024718, "timestamp": "2025-12-19T10:50:01.484415+00:00", "meta": {"OBJECT_NAME": "FENGYUN 1C DEB", "OBJECT_ID": "1999-025CAK", "EPOCH": "2025-12-17T09:22:54.161760", "MEAN_MOTION": 14.14662382, "ECCENTRICITY": 0.01036677, "INCLINATION": 102.1337, "RA_OF_ASC_NODE": 38.97, "ARG_OF_PERICENTER": 15.3289, "MEAN_ANOMALY": 345.0973, "EPHEMERIS_TYPE": 0, "CLASSIFICATION_TYPE": "U", "NORAD_CAT_ID": 31629, "ELEMENT_SET_NO": 999, "REV_AT_EPOCH": 94512, "BSTAR": 0.0017444885, "MEAN_MOTION_DOT": 3.464e-05, "MEAN_MOTION_DDOT": 0}, "tle": {"line1": "1 31629U 99025CAK 25351.39090465  .00003464  00000+0  17445-2 0  9997", "line2": "2 31629 102.1337  38.9700 0103667  15.3289 345.0973 14.14662382945127"}}, "geometry": {"type": "Point", "coordinates": [27.845418324409607, 48.18522030909646]}}]}